name,address,latitude,longitude
서울시립대점,서울특별시 동대문구 전농로 222,37.58396795,127.05363002560506
회기중앙점,서울특별시 동대문구 이문로 30,37.5932665,127.058122
휘경동점,"서울특별시 동대문구 망우로 78,",37.58976525,127.06205280471782
경희대점,서울특별시 동대문구 경희대로 2,37.593782,127.0526752
청량리역사점,서울특별시 동대문구 왕산로 214,37.5805961,127.0482573
외대정문점,서울특별시 동대문구 이문로 107,37.59696265,127.05869976732845
장안동사거리점,서울특별시 동대문구 장한로 129,37.5687297,127.0694493
중랑점,서울특별시 중랑구 망우로32길 6,37.59356325,127.07633820000001
답십리역점,서울특별시 동대문구 고미술로 81,37.563476,127.0582719
홈플러스월곡점,서울특별시 성북구 화랑로 76,37.6018264,127.0404642
동덕여대점,서울특별시 성북구 화랑로11길 31,37.6033584,127.0417989
사가정역점,서울특별시 중랑구 면목로 310,37.5963518,127.0855162
안암점,서울특별시 성북구 고려대로24길 32,37.586083,127.0292911
장한평역점,서울특별시 동대문구 장한로 3,37.5687297,127.0694493
중화역점,서울특별시 중랑구 동일로 802,37.6157847,127.0758096
상봉역점,서울특별시 중랑구 망우로 302-1,37.5962942,127.08615499999999
종암점,서울특별시 성북구 종암로 123,37.6010142,127.0331664
중곡역점,서울특별시 광진구 능동로 400,37.5529046,127.0772581
상봉듀오트리스점,서울특별시 중랑구 상봉로 131,37.5981883,127.0928622
왕십리역사점,서울특별시 성동구 왕십리광장로 17,37.5612222,127.0371358
신설동역점,서울특별시 동대문구 왕산로 4,37.5761351,127.0254698
한양대점,서울특별시 성동구 마조로 11,37.56542,127.04173
석계역점,서울특별시 노원구 석계로1길 14,37.6155995,127.0617809
왕십리역점,서울특별시 성동구 왕십리로 331,37.549734,127.0441677
길음역점,서울특별시 성북구 정릉로 376,37.6046702,127.029119
상왕십리역점,서울특별시 성동구 왕십리로 382,37.5650266,127.0279138
군자역점,서울특별시 광진구 천호대로 548,37.5566093,127.0806118
하월곡점,서울특별시 성북구 월계로 52,37.6114686,127.0355676
돈암점,서울특별시 성북구 동소문로22길 39,37.5898438,127.0189176
황학사거리점,서울특별시 성동구 왕십리로 410,37.549734,127.0441677
돈암중앙점,서울특별시 성북구 동소문로 118,37.5933266,127.0181758
성신여대입구역점,서울특별시 성북구 아리랑로 9,37.5937305,127.0159792
신내점,서울특별시 중랑구 신내로72,0.0,0.0
동묘앞역점,서울특별시 종로구 지봉로 37-1,37.576607,127.015508
롯데마트행당역점,서울특별시 성동구 행당로 84,37.555654,127.024965
광운대역점,서울특별시 노원구 석계로 102,37.62,127.06322
신당역점,서울특별시 중구 다산로 258,37.5629975,127.0153812
길음점,서울특별시 성북구 길음로 33,37.6052079,127.022127
성수역점,서울특별시 성동구 아차산로 91,37.542457,127.0633511
성동성수점,서울특별시 성동구 성수일로6길 47,37.5447934,127.0531656
아차산역점,서울특별시 광진구 천호대로 671,37.5566093,127.0806118
홈플러스신내점,서울특별시 중랑구 신내로 201,37.61598855,127.09360049706524
건대점,서울특별시 광진구 능동로 133,37.5529046,127.0772581
노원공릉점,서울특별시 노원구 동일로 1083,37.6242653,127.0734496
두타점,서울특별시 중구 장충단로 275,37.56866205,127.00871843983305
미아뉴타운점,서울특별시 강북구 삼양로27길 19,37.618777,127.0194734
공릉역점,서울특별시 노원구 동일로192길 74,37.6273668,127.0772588
동대문역사문화공원역점,서울특별시 중구 장충단로 251,37.5600976,127.005614
건대입구점,서울특별시 광진구 동일로22길 115,37.5419143,127.0680063
대학로중앙점,서울특별시 종로구 대학로 144,37.5820802,127.0019693
서울숲역점,서울특별시 성동구 왕십리로 50,37.549734,127.0441677
정릉점,서울특별시 성북구 보국문로 38,37.6098532,127.009535
청구역점,서울특별시 중구 다산로 168,37.5629975,127.0153812
혜화역점,서울특별시 종로구 대학로 122,37.582175250000006,127.0022624
건대몰오브케이점,서울특별시 광진구 아차산로30길 26,37.5399189,127.0675051
홍대대학로점,서울특별시 종로구 대학로 57,37.576675,127.0019086
금호점,서울특별시 성동구 독서당로 302,37.5477024,127.0207921
대학로점,서울특별시 종로구 창경궁로 237,37.568963,126.997927
미아역점,서울특별시 강북구 도봉로 188,37.6198903,127.0288685
스타시티점,서울특별시 광진구 아차산로 262,37.5461477,127.105331
제일제당센터점,서울특별시 중구 동호로 330,37.5590616,127.005233
약수역점,서울특별시 중구 동호로 189,37.5590616,127.005233
광장점,서울특별시 광진구 아차산로 537-17,37.5461477,127.105331
구의역점,서울특별시 광진구 아차산로 378,37.5461477,127.105331
광나루역점,서울특별시 광진구 아차산로 607,37.5461477,127.105331
뚝섬유원지역점,서울특별시 광진구 능동로 7,37.5378419,127.0687007
올림픽대교북단점,서울특별시 광진구 아차산로 484,37.5461477,127.105331
충무로역점,서울특별시 중구 퇴계로 222,37.5611737,126.9886592
홈플러스중계점,서울특별시 노원구 동일로204가길 12,37.6400057,127.068672
강변엔터식스점,서울특별시 광진구 광나루로56길 85,37.5349372,127.0957088
강변역점,서울특별시 광진구 강변역로4길 10,37.5335464,127.0923566
종로YBM점,서울특별시 종로구 종로 104,37.5710709,127.0038782
수유중앙점,서울특별시 강북구 도봉로 336,37.6198903,127.0288685
압구정로데오점,서울특별시 강남구 압구정로50길 9,37.5273631,127.0380087
청담사거리점,서울특별시 강남구 도산대로89길 8,37.5251426,127.0507453549852
수유역점,서울특별시 강북구 도봉로 87길,0.0,0.0
안국점,서울특별시 종로구 율곡로 45,37.5762657,126.98433722551181
종로2가점,서울특별시 종로구 종로12길 21,37.5697352,126.9857522
종각점,서울특별시 종로구 종로 61,37.568934,126.9838969
올리브영 명동 플래그십,서울특별시 중구 명동길 53,37.5641928,126.9850893
명동역점,서울특별시 중구 퇴계로 127,37.5611737,126.9886592
압구정역점,서울특별시 강남구 논현로 878,37.5025503,127.0361212
을지로입구역점,서울특별시 중구 명동3길 36,37.56531255,126.98370068566177
중계역점,서울특별시 노원구 동일로 1335,37.6242653,127.0734496
명동대로점,서울특별시 중구 퇴계로 120,37.5611737,126.9886592
명동중앙점,서울특별시 중구 명동8나길 18,37.5612835,126.9831326
암사역점,서울특별시 강동구 올림픽로 769,37.54128,127.12434
압구정점,서울특별시 강남구 논현로175길 6,37.5227183,127.0210209
종로1가점,서울특별시 종로구 종로 19,37.571004,126.9799994
학동중앙점,서울특별시 강남구 도산대로 326,37.51962,127.0281081
압구정타운점,서울특별시 강남구 논현로 842,37.5025503,127.0361212
청담역점,서울특별시 강남구 삼성로 716,37.5067233,127.0566608
한남오거리점,서울특별시 용산구 독서당로 65-1,37.5311476,127.0077012
순천향입구점,서울특별시 용산구 대사관로 71,37.5349071,126.9993428
세종로점,서울특별시 종로구 세종대로 161,37.5704671,126.9772526
은행사거리점,서울특별시 노원구 한글비석로 264,37.65887,127.07371
강남구청역점,서울특별시 강남구 선릉로 703,37.51767015,127.04084832812009
시청역점,서울특별시 중구 세종대로16길 1,37.5635035,126.9770237
창동역점,서울특별시 도봉구 노해로63길 84-16,37.6518612,127.0423351
천호현대점,서울특별시 강동구 올림픽로 664,37.54128,127.12434
노원역사거리점,서울특별시 노원구 노해로 480,37.6539346,127.0589604
창동점,서울특별시 도봉구 마들로11길 57,37.65404545,127.05125906206726
봉은사역점,서울특별시 강남구 영동대로 602,37.5199698,127.056947
천호엔터식스점,서울특별시 강동구 천호대로 지하,0.0,0.0
천호중앙점,서울특별시 강동구 천호대로 1027,37.5377854,127.1265483
노원점,서울특별시 노원구 상계로 65,37.65809,127.06864
대한통운본사점,서울특별시 중구 세종대로9길 53,37.5623581,126.9734229
이태원중앙점,서울특별시 용산구 이태원로 180,37.5342289,126.9942187
씨제이남산더센터점,서울특별시 중구 소월로2길 12,37.5542795,126.9765175
올리브영 가로수길 타운,서울특별시 강남구 도산대로 133,37.51962,127.0281081
서울스퀘어점,서울특별시 중구 한강대로 416,37.5556985,126.9736225
정동점,서울특별시 중구 새문안로 26,37.5661569,126.9671166
강동구청점,서울특별시 강동구 성내로 19,37.52893,127.12503
명일역점,서울특별시 강동구 양재대로 1637,37.5278376,127.1362641
서울역점,서울특별시 중구 한강대로 405,37.5545547,126.9707793
신사점,서울특별시 강남구 도산대로 116,37.51962,127.0281081
이태원입구점,서울특별시 용산구 이태원로 145,37.5345898,126.9899077
학동역점,서울특별시 강남구 학동로 177,37.5199698,127.056947
덕성여대점,서울특별시 도봉구 삼양로144길 17,37.6515195,127.0137039
잠실장미상가점,서울특별시 송파구 올림픽로35길 124,37.5199253,127.1129084
선정릉역점,서울특별시 강남구 선릉로 602,37.5105901,127.0440439
쌍문점,서울특별시 도봉구 도당로 2,37.66612,127.03784
코엑스몰점,서울특별시 강남구 테헤란로87길 22,37.5102562,127.0581011
파르나스몰점,서울특별시 강남구 테헤란로 521,37.508989,127.060704
신천점,서울특별시 송파구 올림픽로 116-1,37.5131489,127.1002527
종로평창점,서울특별시 종로구 평창문화로 51,37.6042804,126.9637087
트윈시티점,서울특별시 용산구 한강대로 366,37.5436856,126.9722081
홈플러스강동점,서울특별시 강동구 양재대로 1571,37.5458605,127.142537
홈플러스잠실점,서울특별시 송파구 올림픽로35가길 16,37.5167037,127.1032995
독립문점,서울특별시 종로구 송월길 99,37.5695902,126.9634175
잠실역8호선점,서울특별시 송파구 올림픽로 305,37.511058399999996,127.08767119999999
잠실점,서울특별시 송파구 올림픽로 269,37.5255478,127.1176179
길동사거리점,서울특별시 강동구 천호대로 1120,37.5377854,127.1265483
길동역점,서울특별시 강동구 양재대로 1481,37.5278376,127.1362641
상계보람점,서울특별시 노원구 한글비석로 471,37.65887,127.07371
언주역점,서울특별시 강남구 봉은사로 209,37.5135682,127.05643
롯데백화점잠실점,서울특별시 송파구 올림픽로 240,37.51110405,127.09823334105309
롯데월드몰점,서울특별시 송파구 올림픽로 300,37.5125366,127.1026546
롯데월드점,서울특별시 송파구 올림픽로 240,37.51110405,127.09823334105309
선릉역점,서울특별시 강남구 선릉로 513,37.523126,127.0391626
선릉타운점,서울특별시 강남구 테헤란로 411,37.5069402,127.0565359
송파구청점,서울특별시 송파구 오금로 87,37.5087088,127.1150475
숙대입구역점,서울특별시 용산구 한강대로 285,37.5436856,126.9722081
홈플러스방학점,서울특별시 도봉구 도봉로 678,37.6806064,127.0455927
방학역점,서울특별시 도봉구 도봉로150길 28,37.666019,127.0452408
선릉로점,서울특별시 강남구 테헤란로64길 20,37.5039306,127.0513461
선릉아이타워점,서울특별시 강남구 테헤란로 326,37.5069402,127.0565359
숙대점,서울특별시 용산구 청파로45길 19,37.5441215,126.9694468
잠실학원사거리점,서울특별시 송파구 석촌호수로 130,37.5144416,127.083925
고덕점,서울특별시 강동구 동남로75길 13-15,37.553814,127.15431
신논현점,서울특별시 서초구 강남대로 507,37.5034796,127.0248247
만리동점,서울특별시 중구 만리재로 175,37.553490800000006,126.9630962100162
둔촌점,서울특별시 강동구 양재대로 1317,37.5278376,127.1362641
방이시장점,서울특별시 송파구 백제고분로 460,37.5052873,127.1073082
신강남점,서울특별시 강남구 봉은사로2길 31,37.5028453,127.0261846
아현역점,서울특별시 서대문구 신촌로35길 10,37.5580649,126.9554001
용산리첸시아점,서울특별시 용산구 백범로 341,37.5400102,126.9596662
NC강남점,서울특별시 서초구 잠원로 51,37.5116593,127.0066907
강남파이낸스점,서울특별시 강남구 테헤란로 152,37.5001588,127.0366562
대치점,서울특별시 강남구 도곡로 448,37.49811285,127.05961491973548
석촌역점,서울특별시 송파구 백제고분로 387,37.5052873,127.1073082
역삼역점,서울특별시 강남구 테헤란로 138,37.5069402,127.0565359
한티역점,서울특별시 강남구 선릉로 312,37.523126,127.0391626
애오개역점,서울특별시 마포구 마포대로 201,37.5379407,126.9434293
올리브영 강남 플래그십,서울특별시 서초구 강남대로 429,37.5006755,127.0258228
배명사거리점,서울특별시 송파구 백제고분로 276,37.5052873,127.1073082
역삼점,서울특별시 강남구 테헤란로 115,37.5069402,127.0565359
강남엔터식스점,서울특별시 서초구 신반포로 지하,0.0,0.0
대치역점,서울특별시 강남구 남부순환로 2927,37.4936699,127.060248
올림픽아파트점,서울특별시 송파구 양재대로 1220,37.5152532,127.1332409
홍제역점,서울특별시 서대문구 통일로 446,37.5743387,126.9580677
강남중앙점,서울특별시 강남구 강남대로 372,37.5119737,127.0210057
공덕파크팰리스점,서울특별시 마포구 마포대로 143,37.5379407,126.9434293
상일동역점,서울특별시 강동구 고덕로 399,37.556801,127.1668589
남역삼점,서울특별시 강남구 논현로 318,37.5025503,127.0361212
동부이촌점,서울특별시 용산구 이촌로75길 16,0.0,0.0
방이역점,서울특별시 송파구 마천로 41,37.5049362,127.1341029
신용산역점,서울특별시 용산구 한강대로 95,37.5436856,126.9722081
용산아이파크몰점,서울특별시 용산구 한강대로23길 55,37.5301906,126.9651428
이대중앙점,서울특별시 서대문구 이화여대길 43,37.5591281,126.9429083
공덕역점,서울특별시 마포구 백범로 199,37.5435026,126.9527178
서초타운점,서울특별시 서초구 서초대로78길 32,37.4961675,127.0276682
수락산역점,서울특별시 노원구 동일로 1678,37.6485644,127.0644638
강남우성점,서울특별시 강남구 강남대로 320,37.491838400000006,127.0309855387718
서초유원점,서울특별시 서초구 서초중앙로24길 35,37.4948806,127.0153218
타워팰리스점,서울특별시 강남구 언주로30길 39,37.4879664,127.0521222
상일동점,서울특별시 강동구 상일로10길 36,37.550751,127.1745791
서초대로점,서울특별시 서초구 서초대로 314,37.4979756,127.0274773
신촌명물거리점,서울특별시 서대문구 명물길 54,37.5580945,126.9381019
마포역점,서울특별시 마포구 마포대로 53,37.5379407,126.9434293
서래마을점,서울특별시 서초구 서래로 39,37.49739,126.99831
신촌대로점,서울특별시 서대문구 신촌로 121,37.5552729,126.9367767
대흥역점,서울특별시 마포구 백범로 91,37.54823735,126.94177722354189
마포도화점,서울특별시 마포구 삼개로 20,37.5377456,126.9474246
양재대로점,서울특별시 서초구 강남대로 267,37.5034796,127.0248247
교대점,서울특별시 서초구 서초중앙로 95,37.4858131,127.0157906
녹번역점,서울특별시 은평구 은평로 240,37.599088,126.9159238
신촌연세점,서울특별시 서대문구 연세로 37,37.5600406,126.9369239
올리브영 신촌 타운,서울특별시 서대문구 연세로 10,37.557264,126.9368915
서강대점,서울특별시 마포구 백범로 21,37.5424849,126.9542078
양재스타클래스점,서울특별시 강남구 남부순환로 2615,37.49348,127.0612738
서초역점,서울특별시 서초구 반포대로 110,37.5095073,126.9991148
수서역점,서울특별시 강남구 밤고개로1길 10,37.4880133,127.1018308
신촌로터리점,서울특별시 마포구 서강로 133,37.5549534,126.9366361
신촌역점,서울특별시 서대문구 신촌로 79,37.5552729,126.9367767
양재역점,서울특별시 서초구 남부순환로 지하,0.0,0.0
일원역점,서울특별시 강남구 일원로 115,37.4836919,127.0843766
가락시장역점,서울특별시 송파구 중대로 105,37.50753,127.13288
연희점,서울특별시 서대문구 연희로 79,37.5661095,126.9296422
남부터미널점,서울특별시 서초구 효령로 283,37.484077,127.0114198
NC불광점,서울특별시 은평구 불광로 20,37.60970285,126.9289088772423
개롱역점,"서울특별시 송파구 오금로 412,",37.5087088,127.1150475
불광역점,서울특별시 은평구 통일로 736,37.6409267,126.9158024
창천점,서울특별시 서대문구 신촌로 17,37.5577064,126.9585367
광흥창역점,서울특별시 마포구 서강로 75-16,37.5549534,126.9366361
방배카페거리점,서울특별시 서초구 방배중앙로 175,37.4980529,126.9850847
명지대점,서울특별시 서대문구 거북골로 34,37.5803622,126.9235338
포이사거리점,서울특별시 강남구 논현로 82,37.5025503,127.0361212
내방역점,서울특별시 서초구 방배로 184,37.4984328,126.9870608
홍대공항철도역점,서울특별시 마포구 양화로 183,37.5511066,126.9158787
동교동점,서울특별시 마포구 동교로 207,37.5588726,126.9234285
문정역점,서울특별시 송파구 송파대로 167,37.4852945,127.1221507
응암점,서울특별시 은평구 은평로 102,37.599088,126.9159238
중앙대점,서울특별시 동작구 흑석로 81,37.5089249,126.9617361
홍대정문점,서울특별시 마포구 홍익로 4,37.5536488,126.9229386
올리브영 홍대 타운,서울특별시 마포구 양화로 156,37.556081649999996,126.92343005000001
가재울뉴타운점,서울특별시 서대문구 거북골로 100,37.5789414,126.9081221
응암오거리점,서울특별시 은평구 응암로 180,37.6010222,126.9224129
방배점,서울특별시 서초구 방배로 83,37.4984328,126.9870608
상수역점,서울특별시 마포구 와우산로 49,37.5491252,126.92258
연신내범서점,서울특별시 은평구 통일로 842,37.6409267,126.9158024
홍대중앙점,서울특별시 마포구 어울마당로 68,37.5510907,126.92146352592869
거여역점,"서울특별시 송파구 오금로 512,",37.5087088,127.1150475
구산역점,서울특별시 은평구 서오릉로 137,37.6111867,126.9173589
방배이수점,서울특별시 서초구 동작대로 118,37.4983322,126.9844741
연신내로데오점,서울특별시 은평구 연서로 221,37.6094,126.9162
연신내점,서울특별시 은평구 통일로 857,37.6409267,126.9158024
응암역점,서울특별시 은평구 증산로 475,37.5986384,126.9154135
노량진중앙점,서울특별시 동작구 노량진로 162,37.5125967,126.9543166
송파아이파크점,서울특별시 송파구 법원로 55,37.4797654,127.122408
노량진삼거리점,서울특별시 동작구 노량진로 124,37.5125967,126.9543166
북가좌동점,서울특별시 서대문구 거북골로 191,37.5789414,126.9081221
장지역점,서울특별시 송파구 충민로 66,37.4775778,127.1249983
합정메세나폴리스점,서울특별시 마포구 양화로 45,37.5502395,126.9139625
합정카페거리점,서울특별시 마포구 독막로 13,37.5488523,126.915007914665
상도역점,서울특별시 동작구 양녕로 257,37.5139416,126.9560956
합정역점,서울특별시 마포구 독막로 2,37.5486323,126.9176676
구파발역점,서울특별시 은평구 진관2로 12,37.634362,126.9184124
동여의도점,서울특별시 영등포구 의사당대로1길 25,37.5192603,126.929021
망원역점,서울특별시 마포구 월드컵로 74,37.5558081,126.9106433
합정교보점,서울특별시 마포구 월드컵로1길 14,37.5495337,126.9116202
남성역점,서울특별시 동작구 사당로 228,37.4946982,126.9608044
숭실대입구역점,서울특별시 동작구 상도로 358,37.5050907,126.9407112
양재하나로클럽점,서울특별시 서초구 청계산로 10,37.4561322,127.0491707
여의도역점,서울특별시 영등포구 여의나루로 61,37.5232998,126.926277
사당점,서울특별시 동작구 동작대로 29,37.5007662,126.9838687
여의도IFC점,서울특별시 영등포구 국제금융로 10,37.52538915,126.92663352616975
구파발점,서울특별시 은평구 진관2로 15-40,37.6380129,126.9189821
롯데몰은평점,서울특별시 은평구 통일로 1050,37.6367996,126.9179631
서여의도점,서울특별시 영등포구 국회대로70길 15-1,37.5292774,126.9202968
세곡동점,서울특별시 강남구 헌릉로569길 21-36,37.4665963,127.0994215
사당역지하상가점,서울특별시 동작구 동작대로 지하,0.0,0.0
장승배기역점,서울특별시 동작구 장승배기로11가길 11,0.0,0.0
망원동점,서울특별시 마포구 망원로 71,37.557407,126.9025615
국회의사당역점,서울특별시 영등포구 의사당대로 26,37.5242788,126.9219406
마포구청역점,서울특별시 마포구 월드컵로 196,37.5554052,126.9107114
사당역점,서울특별시 관악구 과천대로 941,37.4617027,126.9875862
수색점,서울특별시 은평구 수색로 216,37.5897667,126.8840132
위례아이파크점,서울특별시 송파구 위례광장로 136,37.475947,127.1422591
디지털미디어시티역점,서울특별시 마포구 성암로 지하,0.0,0.0
홈플러스월드컵점,서울특별시 마포구 월드컵로 240,37.5554052,126.9107114
대방역점,서울특별시 영등포구 영등포로 422,37.5124288,126.9248446
씨제이ENM커머스부문점,서울특별시 서초구 과천대로 870-13,37.4626813,126.9880724
관악로점,서울특별시 관악구 관악로 204,37.4908796,126.9564157
낙성대인헌점,서울특별시 관악구 남부순환로248길 3,37.47346765,126.96631537733572
낙성대점,서울특별시 관악구 남부순환로 1908,37.4777009,126.96121395882453
신길점,서울특별시 영등포구 영등포로 358,37.5232395,126.8837803
상암ENM점,서울특별시 마포구 상암산로 66,37.5782114,126.8905855
상암MBC점,서울특별시 마포구 성암로 267,37.581274300000004,126.89113231352732
서울대입구역점,서울특별시 관악구 남부순환로 1840,37.4821966,126.9474016
올리브영 관악 타운,서울특별시 관악구 관악로 171,37.4908796,126.9564157
당산역점,서울특별시 영등포구 당산로 223,37.5340859,126.9019328
상암푸르지오시티점,서울특별시 마포구 월드컵북로54길 25,37.5813028,126.889349
신대방삼거리역점,서울특별시 동작구 보라매로 113,37.4985201,126.9280988
봉천역점,서울특별시 관악구 남부순환로 1735,37.4821966,126.9474016
영등포역사점,서울특별시 영등포구 경인로 846,37.5156447,126.9076335
영등포역점,서울특별시 영등포구 경인로 847,37.5179124,126.9113028
보라매역점,서울특별시 동작구 여의대방로 142,37.5014098,126.9208774
선유도역점,서울특별시 영등포구 양평로 127,37.534826,126.9000655
타임스퀘어신세계점,서울특별시 영등포구 영중로 15,37.517527,126.9061017
타임스퀘어아트리움점,서울특별시 영등포구 영중로 15,37.517527,126.9061017
보라매점,서울특별시 동작구 보라매로 5가길,0.0,0.0
신림역점,서울특별시 관악구 남부순환로 1619,37.4821966,126.9474016
신림점,서울특별시 관악구 신림로 353,37.470773,126.9387142
타임스트림점,서울특별시 관악구 신림로 330,37.4838403,126.9301275
신림중앙점,서울특별시 관악구 신림로 321,37.470773,126.9387142
홈플러스영등포점,서울특별시 영등포구 당산로 42,37.5340859,126.9019328
녹두거리점,서울특별시 관악구 신림로 127,37.470773,126.9387142
문래점,서울특별시 영등포구 선유로 63,37.5235737,126.8903445
염창역점,서울특별시 강서구 공항대로 637,37.5473109,126.8758092
신대방역점,서울특별시 관악구 난곡로 357,37.4773028,126.9155069
대림성모점,서울특별시 동작구 시흥대로 658,37.4904409,126.9080396
신도림테크노마트점,서울특별시 구로구 새말로 97,37.5055354,126.8900335
등촌점,"서울특별시 양천구 목동중앙북로7길 20,",37.5487504,126.86760644019563
디큐브시티점,서울특별시 구로구 경인로 662,37.5104891,126.8909341
신도림점,서울특별시 구로구 경인로 661,37.5104891,126.8909341
등촌역점,서울특별시 강서구 공항대로 543,37.5611331,126.8122158
올리브영 목동 타운,서울특별시 양천구 목동서로 159-1,37.525344,126.8697077
증미역점,서울특별시 강서구 양천로 583,37.5571168,126.8640008
오목교역점,서울특별시 양천구 오목로 344,37.5249601,126.8715914
구로디지털단지역점,서울특별시 관악구 시흥대로 576,37.4848633,126.9032335
목동하이페리온점,서울특별시 양천구 오목로 300,37.5249601,126.8715914
구로구청점,서울특별시 구로구 구로중앙로 68,37.50727,126.87479
구로디지털점,서울특별시 구로구 디지털로34길 43,37.485183,126.8975367
신림남부순환로점,서울특별시 관악구 남부순환로 1377,37.4821966,126.9474016
NC신구로점,서울특별시 구로구 구로중앙로 152,37.50727,126.87479
구로호텔점,서울특별시 구로구 디지털로32길 72,37.4831573,126.8997762
목동사거리점,서울특별시 강서구 등촌로 25,37.5510315,126.8640406
홈플러스강서점,서울특별시 강서구 화곡로 398,37.5496816,126.84779
가양역점,서울특별시 강서구 양천로 476,37.5733438,126.8167715
목동역점,서울특별시 양천구 목동로 203,37.5295532,126.8640797
홈플러스가양점,서울특별시 강서구 양천로 431,37.5733438,126.8167715
강서구청점,서울특별시 강서구 화곡로 316,37.5496816,126.84779
신정점,서울특별시 양천구 신월로 349,37.5171531,126.8397244
양천구청점,서울특별시 양천구 목동동로 73,37.5259049,126.8718078
구일역점,서울특별시 구로구 구일로10길 49,37.495503,126.8758325
현대아울렛가산점,서울특별시 금천구 디지털로10길 9,37.4769457,126.8888314
가산더블유몰점,서울특별시 금천구 디지털로 188,37.4773613,126.88771096865983
가산디지털단지역점,서울특별시 금천구 벚꽃로 286,37.4693216,126.8883347
홈플러스금천점,서울특별시 금천구 시흥대로 391,37.4682281,126.8968206
양천향교역점,서울특별시 강서구 양천로 344,37.5733438,126.8167715
NC강서점,서울특별시 강서구 강서로56길 17,37.5596199,126.838934
가산점,서울특별시 금천구 가산디지털1로 171,37.46781,126.88714
신정네거리역점,서울특별시 양천구 중앙로 252,37.5226024,126.8517014
까치산역점,"서울특별시 강서구 강서로13길 3,",37.5318519,126.8453269
발산역점,서울특별시 강서구 강서로 385,37.5292654,126.8481558
발산점,서울특별시 강서구 강서로 360,37.5292654,126.8481558
은행나무사거리점,서울특별시 금천구 금하로 705,37.451551050000006,126.90831736081753
시흥사거리점,서울특별시 금천구 시흥대로 228,37.45420385,126.90123834371069
우장산역점,서울특별시 강서구 강서로 253,37.5483947,126.8361111
화곡역점,서울특별시 강서구 화곡로 149,37.5496816,126.84779
개봉역북부점,서울특별시 구로구 경인로40길 41,37.4962896,126.859341
홈플러스시흥점,서울특별시 금천구 시흥대로 201,37.4514157,126.9006328
마곡나루역점,서울특별시 강서구 마곡중앙5로 18,37.5671609,126.8220048
마곡역점,서울특별시 강서구 공항대로 168,37.5611331,126.8122158
서서울호수공원점,서울특별시 양천구 남부순환로 424,37.5195455,126.8384331
양천신월점,서울특별시 양천구 지양로 78,37.5184164,126.8374939
신방화역점,서울특별시 강서구 방화대로 294,37.56696495,126.81694937139923
오류동역점,서울특별시 구로구 경인로 204,37.50789805,126.8861006666827
신정이펜하우스점,서울특별시 양천구 신정이펜2로 14,37.5122285,126.8322729
방화역점,서울특별시 강서구 금낭화로 292,37.5688658,126.8116908
송정역점,서울특별시 강서구 공항대로 28,37.5611331,126.8122158
천왕역점,서울특별시 구로구 오류로 20,37.4909839,126.8407738
김포공항점,서울특별시 강서구 하늘길 38,37.5676744,126.8020277
군포행사장,서울특별시 중구 소월로2길 12,37.5542795,126.9765175
미아사거리점,서울특별시 강북구 도봉로 41-1,37.6198903,127.0288685
쌍문역점,서울특별시 도봉구 도봉로 480,37.6806064,127.0455927
